{"type": "FeatureCollection", "features": [ {"type": "Feature", "properties": {"norad_id": 36203, "name": "FENGYUN 1C DEB", "group": "fengyun-1c-debris", "lat": 61.15700469840522, "lon": 142.71259352389274, "alt_km": 570.3399485105929, "timestamp": "2025-12-26T06:43:29.799823+00:00", "meta": {"OBJECT_NAME": "FENGYUN 1C DEB", "OBJECT_ID": "1999-025DUC", "EPOCH": "2025-12-16T02:34:12.047232", "MEAN_MOTION": 14.78467362, "ECCENTRICITY": 0.00836343, "INCLINATION": 99.0958, "RA_OF_ASC_NODE": 294.3166, "ARG_OF_PERICENTER": 138.0502, "MEAN_ANOMALY": 222.7152, "EPHEMERIS_TYPE": 0, "CLASSIFICATION_TYPE": "U", "NORAD_CAT_ID": 36203, "ELEMENT_SET_NO": 999, "REV_AT_EPOCH": 63479, "BSTAR": 0.00071031238, "MEAN_MOTION_DOT": 5.428e-05, "MEAN_MOTION_DDOT": 0}, "tle": {"line1": "1 36203U 99025DUC 25350.10708388  .00005428  00000+0  71031-3 0  9992", "line2": "2 36203  99.0958 294.3166 0083634 138.0502 222.7152 14.78467362634798"}}, "geometry": {"type": "Point", "coordinates": [142.71259352389274, 61.15700469840522]}}, {"type": "Feature", "properties": {"norad_id": 36204, "name": "FENGYUN 1C DEB", "group": "fengyun-1c-debris", "lat": -80.15869279683231, "lon": 169.05168991222084, "alt_km": 795.6740367196189, "timestamp": "2025-12-26T06:43:29.799833+00:00", "meta": {"OBJECT_NAME": "FENGYUN 1C DEB", "OBJECT_ID": "1999-025DUD", "EPOCH": "2025-12-20T00:29:04.036704", "MEAN_MOTION": 14.34620289, "ECCENTRICITY": 0.00199406, "INCLINATION": 99.2912, "RA_OF_ASC_NODE": 91.6441, "ARG_OF_PERICENTER": 143.0845, "MEAN_ANOMALY": 217.1715, "EPHEMERIS_TYPE": 0, "CLASSIFICATION_TYPE": "U", "NORAD_CAT_ID": 36204, "ELEMENT_SET_NO": 999, "REV_AT_EPOCH": 94532, "BSTAR": 0.00076658222, "MEAN_MOTION_DOT": 2.122e-05, "MEAN_MOTION_DDOT": 0}, "tle": {"line1": "1 36204U 99025DUD 25354.02018561  .00002122  00000+0  76658-3 0  9993", "line2": "2 36204  99.2912  91.6441 0019940 143.0845 217.1715 14.34620289945328"}}, "geometry": {"type": "Point", "coordinates": [169.05168991222084, -80.15869279683231]}}, {"type": "Feature", "properties": {"norad_id": 36206, "name": "FENGYUN 1C DEB", "group": "fengyun-1c-debris", "lat": 13.8694498872241, "lon": 20.79084546815334, "alt_km": 803.1834458700714, "timestamp": "2025-12-26T06:43:29.799843+00:00", "meta": {"OBJECT_NAME": "FENGYUN 1C DEB", "OBJECT_ID": "1999-025DUF", "EPOCH": "2025-12-24T20:52:33.826080", "MEAN_MOTION": 14.21615438, "ECCENTRICITY": 0.0029773, "INCLINATION": 98.4773, "RA_OF_ASC_NODE": 21.5465, "ARG_OF_PERICENTER": 343.5868, "MEAN_ANOMALY": 16.4343, "EPHEMERIS_TYPE": 0, "CLASSIFICATION_TYPE": "U", "NORAD_CAT_ID": 36206, "ELEMENT_SET_NO": 999, "REV_AT_EPOCH": 64593, "BSTAR": 0.00062406, "MEAN_MOTION_DOT": 1.333e-05, "MEAN_MOTION_DDOT": 0}, "tle": {"line1": "1 36206U 99025DUF 25358.86983595  .00001333  00000+0  62406-3 0  9998", "line2": "2 36206  98.4773  21.5465 0029773 343.5868  16.4343 14.21615438645938"}}, "geometry": {"type": "Point", "coordinates": [20.79084546815334, 13.8694498872241]}}, {"type": "Feature", "properties": {"norad_id": 36211, "name": "FENGYUN 1C DEB", "group": "fengyun-1c-debris", "lat": 8.297626605513315, "lon": -8.184174107053444, "alt_km": 998.5209735594344, "timestamp": "2025-12-26T06:43:29.799853+00:00", "meta": {"OBJECT_NAME": "FENGYUN 1C DEB", "OBJECT_ID": "1999-025DUL", "EPOCH": "2025-12-23T06:16:15.708288", "MEAN_MOTION": 14.260204, "ECCENTRICITY": 0.02668464, "INCLINATION": 98.5048, "RA_OF_ASC_NODE": 350.132, "ARG_OF_PERICENTER": 197.9327, "MEAN_ANOMALY": 161.23, "EPHEMERIS_TYPE": 0, "CLASSIFICATION_TYPE": "U", "NORAD_CAT_ID": 36211, "ELEMENT_SET_NO": 999, "REV_AT_EPOCH": 94519, "BSTAR": 0.00037114445, "MEAN_MOTION_DOT": 1.239e-05, "MEAN_MOTION_DDOT": 0}, "tle": {"line1": "1 36211U 99025DUL 25357.26129292  .00001239  00000+0  37114-3 0  9996", "line2": "2 36211  98.5048 350.1320 0266846 197.9327 161.2300 14.26020400945193"}}, "geometry": {"type": "Point", "coordinates": [-8.184174107053444, 8.297626605513315]}}, {"type": "Feature", "properties": {"norad_id": 36216, "name": "FENGYUN 1C DEB", "group": "fengyun-1c-debris", "lat": 31.780890700265317, "lon": 14.708413277886493, "alt_km": 808.2280172322498, "timestamp": "2025-12-26T06:43:29.799863+00:00", "meta": {"OBJECT_NAME": "FENGYUN 1C DEB", "OBJECT_ID": "1999-025DUR", "EPOCH": "2025-12-24T19:02:01.813056", "MEAN_MOTION": 14.18875668, "ECCENTRICITY": 0.00445385, "INCLINATION": 98.6079, "RA_OF_ASC_NODE": 18.6496, "ARG_OF_PERICENTER": 342.7627, "MEAN_ANOMALY": 17.2035, "EPHEMERIS_TYPE": 0, "CLASSIFICATION_TYPE": "U", "NORAD_CAT_ID": 36216, "ELEMENT_SET_NO": 999, "REV_AT_EPOCH": 64543, "BSTAR": 0.00034565975, "MEAN_MOTION_DOT": 6.84e-06, "MEAN_MOTION_DDOT": 0}, "tle": {"line1": "1 36216U 99025DUR 25358.79307654  .00000684  00000+0  34566-3 0  9991", "line2": "2 36216  98.6079  18.6496 0044538 342.7627  17.2035 14.18875668645432"}}, "geometry": {"type": "Point", "coordinates": [14.708413277886493, 31.780890700265317]}}, {"type": "Feature", "properties": {"norad_id": 36218, "name": "FENGYUN 1C DEB", "group": "fengyun-1c-debris", "lat": -41.91009598292473, "lon": -148.92401966753192, "alt_km": 641.3375831662661, "timestamp": "2025-12-26T06:43:29.799873+00:00", "meta": {"OBJECT_NAME": "FENGYUN 1C DEB", "OBJECT_ID": "1999-025DUT", "EPOCH": "2025-12-24T07:34:49.743264", "MEAN_MOTION": 14.71143778, "ECCENTRICITY": 0.00722677, "INCLINATION": 99.0761, "RA_OF_ASC_NODE": 200.6397, "ARG_OF_PERICENTER": 259.5662, "MEAN_ANOMALY": 99.7391, "EPHEMERIS_TYPE": 0, "CLASSIFICATION_TYPE": "U", "NORAD_CAT_ID": 36218, "ELEMENT_SET_NO": 999, "REV_AT_EPOCH": 59313, "BSTAR": 0.0013149069, "MEAN_MOTION_DOT": 8.373e-05, "MEAN_MOTION_DDOT": 0}, "tle": {"line1": "1 36218U 99025DUT 25358.31585351  .00008373  00000+0  13149-2 0  9999", "line2": "2 36218  99.0761 200.6397 0072267 259.5662  99.7391 14.71143778593132"}}, "geometry": {"type": "Point", "coordinates": [-148.92401966753192, -41.91009598292473]}}, {"type": "Feature", "properties": {"norad_id": 36224, "name": "FENGYUN 1C DEB", "group": "fengyun-1c-debris", "lat": -28.32627877320139, "lon": 52.130112283120646, "alt_km": 777.1815104884718, "timestamp": "2025-12-26T06:43:29.799884+00:00", "meta": {"OBJECT_NAME": "FENGYUN 1C DEB", "OBJECT_ID": "1999-025DUZ", "EPOCH": "2025-12-24T08:57:55.014624", "MEAN_MOTION": 14.12767953, "ECCENTRICITY": 0.01140644, "INCLINATION": 98.7784, "RA_OF_ASC_NODE": 45.4833, "ARG_OF_PERICENTER": 318.7957, "MEAN_ANOMALY": 40.4647, "EPHEMERIS_TYPE": 0, "CLASSIFICATION_TYPE": "U", "NORAD_CAT_ID": 36224, "ELEMENT_SET_NO": 999, "REV_AT_EPOCH": 64596, "BSTAR": 0.00011347957, "MEAN_MOTION_DOT": 1.8e-06, "MEAN_MOTION_DDOT": 0}, "tle": {"line1": "1 36224U 99025DUZ 25358.37355341  .00000180  00000+0  11348-3 0  9994", "line2": "2 36224  98.7784  45.4833 0114064 318.7957  40.4647 14.12767953645965"}}, "geometry": {"type": "Point", "coordinates": [52.130112283120646, -28.32627877320139]}}, {"type": "Feature", "properties": {"norad_id": 36225, "name": "FENGYUN 1C DEB", "group": "fengyun-1c-debris", "lat": -21.861999603887607, "lon": 127.20185490715012, "alt_km": 550.4342491543166, "timestamp": "2025-12-26T06:43:29.799894+00:00", "meta": {"OBJECT_NAME": "FENGYUN 1C DEB", "OBJECT_ID": "1999-025DVA", "EPOCH": "2025-12-25T14:53:17.464128", "MEAN_MOTION": 15.07014915, "ECCENTRICITY": 0.0043233, "INCLINATION": 98.8186, "RA_OF_ASC_NODE": 122.8754, "ARG_OF_PERICENTER": 250.0692, "MEAN_ANOMALY": 109.5871, "EPHEMERIS_TYPE": 0, "CLASSIFICATION_TYPE": "U", "NORAD_CAT_ID": 36225, "ELEMENT_SET_NO": 999, "REV_AT_EPOCH": 66966, "BSTAR": 0.0029369, "MEAN_MOTION_DOT": 0.00045111, "MEAN_MOTION_DDOT": 0}, "tle": {"line1": "1 36225U 99025DVA 25359.62034102  .00045111  00000+0  29369-2 0  9997", "line2": "2 36225  98.8186 122.8754 0043233 250.0692 109.5871 15.07014915669665"}}, "geometry": {"type": "Point", "coordinates": [127.20185490715012, -21.861999603887607]}}, {"type": "Feature", "properties": {"norad_id": 36226, "name": "FENGYUN 1C DEB", "group": "fengyun-1c-debris", "lat": 5.565223614291602, "lon": 41.36761910663284, "alt_km": 797.2016873437497, "timestamp": "2025-12-26T06:43:29.799904+00:00", "meta": {"OBJECT_NAME": "FENGYUN 1C DEB", "OBJECT_ID": "1999-025DVB", "EPOCH": "2025-12-16T21:56:50.014464", "MEAN_MOTION": 14.10310742, "ECCENTRICITY": 0.0095148, "INCLINATION": 98.6088, "RA_OF_ASC_NODE": 33.2455, "ARG_OF_PERICENTER": 8.6109, "MEAN_ANOMALY": 351.6668, "EPHEMERIS_TYPE": 0, "CLASSIFICATION_TYPE": "U", "NORAD_CAT_ID": 36226, "ELEMENT_SET_NO": 999, "REV_AT_EPOCH": 63821, "BSTAR": 0.0011977074, "MEAN_MOTION_DOT": 2.175e-05, "MEAN_MOTION_DDOT": 0}, "tle": {"line1": "1 36226U 99025DVB 25350.91446776  .00002175  00000+0  11977-2 0  9994", "line2": "2 36226  98.6088  33.2455 0095148   8.6109 351.6668 14.10310742638211"}}, "geometry": {"type": "Point", "coordinates": [41.36761910663284, 5.565223614291602]}}, {"type": "Feature", "properties": {"norad_id": 36229, "name": "FENGYUN 1C DEB", "group": "fengyun-1c-debris", "lat": -16.435482088122196, "lon": -133.88481697311164, "alt_km": 889.9701341290602, "timestamp": "2025-12-26T06:43:29.799914+00:00", "meta": {"OBJECT_NAME": "FENGYUN 1C DEB", "OBJECT_ID": "1999-025DVE", "EPOCH": "2025-12-24T20:40:40.598400", "MEAN_MOTION": 14.07252802, "ECCENTRICITY": 0.01032441, "INCLINATION": 100.9245, "RA_OF_ASC_NODE": 221.1379, "ARG_OF_PERICENTER": 90.4004, "MEAN_ANOMALY": 270.8988, "EPHEMERIS_TYPE": 0, "CLASSIFICATION_TYPE": "U", "NORAD_CAT_ID": 36229, "ELEMENT_SET_NO": 999, "REV_AT_EPOCH": 63426, "BSTAR": 0.0015049977, "MEAN_MOTION_DOT": 2.591e-05, "MEAN_MOTION_DDOT": 0}, "tle": {"line1": "1 36229U 99025DVE 25358.86158100  .00002591  00000+0  15050-2 0  9998", "line2": "2 36229 100.9245 221.1379 0103244  90.4004 270.8988 14.07252802634265"}}, "geometry": {"type": "Point", "coordinates": [-133.88481697311164, -16.435482088122196]}}]}